{
  "type": "FeatureCollection",
  "features": [
    {
      "type": "Feature",
      "properties": {
        "norad_id": 31161,
        "name": "FENGYUN 1C DEB",
        "group": "fengyun-1c-debris",
        "lat": 63.18284714870223,
        "lon": -4.017430567830523,
        "alt_km": 855.5894294580912,
        "timestamp": "2025-12-18T07:01:54.870469+00:00",
        "meta_object_name": "FENGYUN 1C DEB",
        "meta_object_id": "1999-025BHP",
        "meta_epoch": "2025-12-17T20:30:18.101088",
        "meta_mean_motion": 14.09256242,
        "meta_eccentricity": 0.00681198,
        "meta_inclination": 98.7482,
        "meta_ra_of_asc_node": 13.2908,
        "meta_arg_of_pericenter": 335.5969,
        "meta_mean_anomaly": 24.1981,
        "meta_ephemeris_type": 0,
        "meta_classification_type": "U",
        "meta_norad_cat_id": 31161,
        "meta_element_set_no": 999,
        "meta_rev_at_epoch": 96174,
        "meta_bstar": 0.00033207188,
        "meta_mean_motion_dot": 5.47e-06,
        "meta_mean_motion_ddot": 0,
        "tle_line1": "1 31161U 99025BHP 25351.85437617  .00000547  00000+0  33207-3 0  9997",
        "tle_line2": "2 31161  98.7482  13.2908 0068119 335.5969  24.1981 14.09256242961747"
      },
      "geometry": {
        "type": "Point",
        "coordinates": [
          -4.017430567830523,
          63.18284714870223
        ]
      }
    },
    {
      "type": "Feature",
      "properties": {
        "norad_id": 31165,
        "name": "FENGYUN 1C DEB",
        "group": "fengyun-1c-debris",
        "lat": 16.60955570164628,
        "lon": -124.73852835889896,
        "alt_km": 629.5685810616715,
        "timestamp": "2025-12-18T07:01:54.870478+00:00",
        "meta_object_name": "FENGYUN 1C DEB",
        "meta_object_id": "1999-025BHT",
        "meta_epoch": "2025-12-16T10:17:08.651040",
        "meta_mean_motion": 14.71110173,
        "meta_eccentricity": 0.00695607,
        "meta_inclination": 98.8865,
        "meta_ra_of_asc_node": 50.5538,
        "meta_arg_of_pericenter": 223.6038,
        "meta_mean_anomaly": 151.8714,
        "meta_ephemeris_type": 0,
        "meta_classification_type": "U",
        "meta_norad_cat_id": 31165,
        "meta_element_set_no": 999,
        "meta_rev_at_epoch": 98809,
        "meta_bstar": 0.0007973133,
        "meta_mean_motion_dot": 5.032e-05,
        "meta_mean_motion_ddot": 0,
        "tle_line1": "1 31165U 99025BHT 25350.42857235  .00005032  00000+0  79731-3 0  9991",
        "tle_line2": "2 31165  98.8865  50.5538 0069560 223.6038 151.8714 14.71110173988095"
      },
      "geometry": {
        "type": "Point",
        "coordinates": [
          -124.73852835889896,
          16.60955570164628
        ]
      }
    },
    {
      "type": "Feature",
      "properties": {
        "norad_id": 31168,
        "name": "FENGYUN 1C DEB",
        "group": "fengyun-1c-debris",
        "lat": -6.1435466145004485,
        "lon": 124.97588576097644,
        "alt_km": 626.1512822757177,
        "timestamp": "2025-12-18T07:01:54.870488+00:00",
        "meta_object_name": "FENGYUN 1C DEB",
        "meta_object_id": "1999-025BHW",
        "meta_epoch": "2025-12-17T19:36:15.237792",
        "meta_mean_motion": 14.67384321,
        "meta_eccentricity": 0.01086459,
        "meta_inclination": 98.8907,
        "meta_ra_of_asc_node": 123.4941,
        "meta_arg_of_pericenter": 48.0003,
        "meta_mean_anomaly": 313.0388,
        "meta_ephemeris_type": 0,
        "meta_classification_type": "U",
        "meta_norad_cat_id": 31168,
        "meta_element_set_no": 999,
        "meta_rev_at_epoch": 99195,
        "meta_bstar": 0.00045178853,
        "meta_mean_motion_dot": 2.728e-05,
        "meta_mean_motion_ddot": 0,
        "tle_line1": "1 31168U 99025BHW 25351.81684303  .00002728  00000+0  45179-3 0  9990",
        "tle_line2": "2 31168  98.8907 123.4941 0108645  48.0003 313.0388 14.67384321991953"
      },
      "geometry": {
        "type": "Point",
        "coordinates": [
          124.97588576097644,
          -6.1435466145004485
        ]
      }
    },
    {
      "type": "Feature",
      "properties": {
        "norad_id": 31169,
        "name": "FENGYUN 1C DEB",
        "group": "fengyun-1c-debris",
        "lat": 61.00163112058019,
        "lon": -144.10574453595228,
        "alt_km": 815.3200406831202,
        "timestamp": "2025-12-18T07:01:54.870499+00:00",
        "meta_object_name": "FENGYUN 1C DEB",
        "meta_object_id": "1999-025BHX",
        "meta_epoch": "2025-12-16T14:05:04.034400",
        "meta_mean_motion": 14.26488337,
        "meta_eccentricity": 0.00572472,
        "meta_inclination": 99.1569,
        "meta_ra_of_asc_node": 17.1927,
        "meta_arg_of_pericenter": 6.4565,
        "meta_mean_anomaly": 353.7339,
        "meta_ephemeris_type": 0,
        "meta_classification_type": "U",
        "meta_norad_cat_id": 31169,
        "meta_element_set_no": 999,
        "meta_rev_at_epoch": 57159,
        "meta_bstar": 0.0016648589,
        "meta_mean_motion_dot": 4.034e-05,
        "meta_mean_motion_ddot": 0,
        "tle_line1": "1 31169U 99025BHX 25350.58685225  .00004034  00000+0  16649-2 0  9999",
        "tle_line2": "2 31169  99.1569  17.1927 0057247   6.4565 353.7339 14.26488337571595"
      },
      "geometry": {
        "type": "Point",
        "coordinates": [
          -144.10574453595228,
          61.00163112058019
        ]
      }
    },
    {
      "type": "Feature",
      "properties": {
        "norad_id": 31171,
        "name": "FENGYUN 1C DEB",
        "group": "fengyun-1c-debris",
        "lat": 19.853907399540486,
        "lon": -21.346413832340456,
        "alt_km": 754.99945539913,
        "timestamp": "2025-12-18T07:01:54.870509+00:00",
        "meta_object_name": "FENGYUN 1C DEB",
        "meta_object_id": "1999-025BHZ",
        "meta_epoch": "2025-12-15T05:22:36.058944",
        "meta_mean_motion": 14.34900078,
        "meta_eccentricity": 0.01539172,
        "meta_inclination": 98.0152,
        "meta_ra_of_asc_node": 338.7192,
        "meta_arg_of_pericenter": 309.1501,
        "meta_mean_anomaly": 65.033,
        "meta_ephemeris_type": 0,
        "meta_classification_type": "U",
        "meta_norad_cat_id": 31171,
        "meta_element_set_no": 999,
        "meta_rev_at_epoch": 95866,
        "meta_bstar": 0.00277766,
        "meta_mean_motion_dot": 8.991e-05,
        "meta_mean_motion_ddot": 0,
        "tle_line1": "1 31171U 99025BHZ 25349.22402846  .00008991  00000+0  27777-2 0  9997",
        "tle_line2": "2 31171  98.0152 338.7192 0153917 309.1501  65.0330 14.34900078958665"
      },
      "geometry": {
        "type": "Point",
        "coordinates": [
          -21.346413832340456,
          19.853907399540486
        ]
      }
    },
    {
      "type": "Feature",
      "properties": {
        "norad_id": 31172,
        "name": "FENGYUN 1C DEB",
        "group": "fengyun-1c-debris",
        "lat": -27.626777482172756,
        "lon": 172.15603086696987,
        "alt_km": 715.4736103697942,
        "timestamp": "2025-12-18T07:01:54.870519+00:00",
        "meta_object_name": "FENGYUN 1C DEB",
        "meta_object_id": "1999-025BJA",
        "meta_epoch": "2025-12-17T18:18:30.099168",
        "meta_mean_motion": 14.31518478,
        "meta_eccentricity": 0.01480806,
        "meta_inclination": 98.4247,
        "meta_ra_of_asc_node": 356.0902,
        "meta_arg_of_pericenter": 253.5316,
        "meta_mean_anomaly": 104.9551,
        "meta_ephemeris_type": 0,
        "meta_classification_type": "U",
        "meta_norad_cat_id": 31172,
        "meta_element_set_no": 999,
        "meta_rev_at_epoch": 97698,
        "meta_bstar": 0.0001282396,
        "meta_mean_motion_dot": 3.38e-06,
        "meta_mean_motion_ddot": 0,
        "tle_line1": "1 31172U 99025BJA 25351.76284837  .00000338  00000+0  12824-3 0  9993",
        "tle_line2": "2 31172  98.4247 356.0902 0148080 253.5316 104.9551 14.31518478976987"
      },
      "geometry": {
        "type": "Point",
        "coordinates": [
          172.15603086696987,
          -27.626777482172756
        ]
      }
    },
    {
      "type": "Feature",
      "properties": {
        "norad_id": 31175,
        "name": "FENGYUN 1C DEB",
        "group": "fengyun-1c-debris",
        "lat": -35.32847051061312,
        "lon": -1.4486107367024645,
        "alt_km": 750.4632107574071,
        "timestamp": "2025-12-18T07:01:54.870528+00:00",
        "meta_object_name": "FENGYUN 1C DEB",
        "meta_object_id": "1999-025BJD",
        "meta_epoch": "2025-12-12T17:59:18.181536",
        "meta_mean_motion": 14.60068253,
        "meta_eccentricity": 0.00743425,
        "meta_inclination": 98.3983,
        "meta_ra_of_asc_node": 346.9248,
        "meta_arg_of_pericenter": 165.4313,
        "meta_mean_anomaly": 194.9054,
        "meta_ephemeris_type": 0,
        "meta_classification_type": "U",
        "meta_norad_cat_id": 31175,
        "meta_element_set_no": 999,
        "meta_rev_at_epoch": 65639,
        "meta_bstar": 0.0058463227,
        "meta_mean_motion_dot": 0.00029271,
        "meta_mean_motion_ddot": 0,
        "tle_line1": "1 31175U 99025BJD 25346.74951599  .00029271  00000+0  58463-2 0  9999",
        "tle_line2": "2 31175  98.3983 346.9248 0074342 165.4313 194.9054 14.60068253656394"
      },
      "geometry": {
        "type": "Point",
        "coordinates": [
          -1.4486107367024645,
          -35.32847051061312
        ]
      }
    }
  ]
}